KUIPER-00027            
1 63740U 25088S   25216.91668981  .00027955  00000+0  81859-3 0  9998
2 63740  51.8738 344.3828 0002616 111.8075 144.8570 15.35012729  5339
KUIPER-00028            
1 63741U 25088T   25216.79263490  .00015749  00000+0  41655-3 0  9999
2 63741  51.8705 344.8222 0001733  65.5355 294.5812 15.38566787 15763
KUIPER-00029            
1 63742U 25088U   25216.65921858  .00015298  00000+0  42100-3 0  9999
2 63742  51.8696 346.1535 0004816 100.4418 259.7112 15.37354393 15267
KUIPER-00030            
1 63743U 25088V   25216.91668981  .00007571  00000+0  53581-3 0  9994
2 63743  51.8949 350.5300 0013106  81.6771  78.6813 15.05683362  5184
KUIPER-00031            
1 63744U 25088W   25216.91668981 -.01205241  00000+0 -39764-1 0  9997
2 63744  51.8727 344.5931 0002854  69.0555  82.9283 15.34001208  5948
KUIPER-00032            
1 63745U 25088X   25216.91668981  .00003196  00000+0  12493-3 0  9992
2 63745  51.8746 345.1249 0005024  66.6954 164.2502 15.28832918  5331
KUIPER-00033            
1 63746U 25088Y   25216.78815009  .00001817  00000+0  26384-3 0  9995
2 63746  51.9021   5.7279 0003187 167.8113 192.2927 14.80502198 15480
KUIPER-00034            
1 63747U 25088Z   25216.73466241  .00014910  00000+0  40073-3 0  9990
2 63747  51.8722 345.1851 0001548  98.0493 262.0670 15.38117381 15447
