<?xml version="1.0" encoding="UTF-8"?>
<ndm xmlns:xsi="http://www.w3.org/2001/XMLSchema-instance" xsi:noNamespaceSchemaLocation="https://sanaregistry.org/r/ndmxml_unqualified/ndmxml-2.0.0-master-2.0.xsd">
<omm id="CCSDS_OMM_VERS" version="2.0">
<header><CREATION_DATE/><ORIGINATOR/></header><body><segment><metadata><OBJECT_NAME>KUIPER-00027</OBJECT_NAME><OBJECT_ID>2025-088S</OBJECT_ID><CENTER_NAME>EARTH</CENTER_NAME><REF_FRAME>TEME</REF_FRAME><TIME_SYSTEM>UTC</TIME_SYSTEM><MEAN_ELEMENT_THEORY>SGP4</MEAN_ELEMENT_THEORY></metadata><data><meanElements><EPOCH>2025-08-04T22:00:01.999584</EPOCH><MEAN_MOTION>15.35012729</MEAN_MOTION><ECCENTRICITY>.0002616</ECCENTRICITY><INCLINATION>51.8738</INCLINATION><RA_OF_ASC_NODE>344.3828</RA_OF_ASC_NODE><ARG_OF_PERICENTER>111.8075</ARG_OF_PERICENTER><MEAN_ANOMALY>144.8570</MEAN_ANOMALY></meanElements><tleParameters><EPHEMERIS_TYPE>0</EPHEMERIS_TYPE><CLASSIFICATION_TYPE>U</CLASSIFICATION_TYPE><NORAD_CAT_ID>63740</NORAD_CAT_ID><ELEMENT_SET_NO>999</ELEMENT_SET_NO><REV_AT_EPOCH>533</REV_AT_EPOCH><BSTAR>.81859E-3</BSTAR><MEAN_MOTION_DOT>.27955E-3</MEAN_MOTION_DOT><MEAN_MOTION_DDOT>0</MEAN_MOTION_DDOT></tleParameters></data></segment></body></omm>
<omm id="CCSDS_OMM_VERS" version="2.0">
<header><CREATION_DATE/><ORIGINATOR/></header><body><segment><metadata><OBJECT_NAME>KUIPER-00028</OBJECT_NAME><OBJECT_ID>2025-088T</OBJECT_ID><CENTER_NAME>EARTH</CENTER_NAME><REF_FRAME>TEME</REF_FRAME><TIME_SYSTEM>UTC</TIME_SYSTEM><MEAN_ELEMENT_THEORY>SGP4</MEAN_ELEMENT_THEORY></metadata><data><meanElements><EPOCH>2025-08-04T19:01:23.655360</EPOCH><MEAN_MOTION>15.38566787</MEAN_MOTION><ECCENTRICITY>.0001733</ECCENTRICITY><INCLINATION>51.8705</INCLINATION><RA_OF_ASC_NODE>344.8222</RA_OF_ASC_NODE><ARG_OF_PERICENTER>65.5355</ARG_OF_PERICENTER><MEAN_ANOMALY>294.5812</MEAN_ANOMALY></meanElements><tleParameters><EPHEMERIS_TYPE>0</EPHEMERIS_TYPE><CLASSIFICATION_TYPE>U</CLASSIFICATION_TYPE><NORAD_CAT_ID>63741</NORAD_CAT_ID><ELEMENT_SET_NO>999</ELEMENT_SET_NO><REV_AT_EPOCH>1576</REV_AT_EPOCH><BSTAR>.41655E-3</BSTAR><MEAN_MOTION_DOT>.15749E-3</MEAN_MOTION_DOT><MEAN_MOTION_DDOT>0</MEAN_MOTION_DDOT></tleParameters></data></segment></body></omm>
<omm id="CCSDS_OMM_VERS" version="2.0">
<header><CREATION_DATE/><ORIGINATOR/></header><body><segment><metadata><OBJECT_NAME>KUIPER-00029</OBJECT_NAME><OBJECT_ID>2025-088U</OBJECT_ID><CENTER_NAME>EARTH</CENTER_NAME><REF_FRAME>TEME</REF_FRAME><TIME_SYSTEM>UTC</TIME_SYSTEM><MEAN_ELEMENT_THEORY>SGP4</MEAN_ELEMENT_THEORY></metadata><data><meanElements><EPOCH>2025-08-04T15:49:16.485312</EPOCH><MEAN_MOTION>15.37354393</MEAN_MOTION><ECCENTRICITY>.0004816</ECCENTRICITY><INCLINATION>51.8696</INCLINATION><RA_OF_ASC_NODE>346.1535</RA_OF_ASC_NODE><ARG_OF_PERICENTER>100.4418</ARG_OF_PERICENTER><MEAN_ANOMALY>259.7112</MEAN_ANOMALY></meanElements><tleParameters><EPHEMERIS_TYPE>0</EPHEMERIS_TYPE><CLASSIFICATION_TYPE>U</CLASSIFICATION_TYPE><NORAD_CAT_ID>63742</NORAD_CAT_ID><ELEMENT_SET_NO>999</ELEMENT_SET_NO><REV_AT_EPOCH>1526</REV_AT_EPOCH><BSTAR>.421E-3</BSTAR><MEAN_MOTION_DOT>.15298E-3</MEAN_MOTION_DOT><MEAN_MOTION_DDOT>0</MEAN_MOTION_DDOT></tleParameters></data></segment></body></omm>
<omm id="CCSDS_OMM_VERS" version="2.0">
<header><CREATION_DATE/><ORIGINATOR/></header><body><segment><metadata><OBJECT_NAME>KUIPER-00030</OBJECT_NAME><OBJECT_ID>2025-088V</OBJECT_ID><CENTER_NAME>EARTH</CENTER_NAME><REF_FRAME>TEME</REF_FRAME><TIME_SYSTEM>UTC</TIME_SYSTEM><MEAN_ELEMENT_THEORY>SGP4</MEAN_ELEMENT_THEORY></metadata><data><meanElements><EPOCH>2025-08-04T22:00:01.999584</EPOCH><MEAN_MOTION>15.05683362</MEAN_MOTION><ECCENTRICITY>.0013106</ECCENTRICITY><INCLINATION>51.8949</INCLINATION><RA_OF_ASC_NODE>350.5300</RA_OF_ASC_NODE><ARG_OF_PERICENTER>81.6771</ARG_OF_PERICENTER><MEAN_ANOMALY>78.6813</MEAN_ANOMALY></meanElements><tleParameters><EPHEMERIS_TYPE>0</EPHEMERIS_TYPE><CLASSIFICATION_TYPE>U</CLASSIFICATION_TYPE><NORAD_CAT_ID>63743</NORAD_CAT_ID><ELEMENT_SET_NO>999</ELEMENT_SET_NO><REV_AT_EPOCH>518</REV_AT_EPOCH><BSTAR>.53581E-3</BSTAR><MEAN_MOTION_DOT>.7571E-4</MEAN_MOTION_DOT><MEAN_MOTION_DDOT>0</MEAN_MOTION_DDOT></tleParameters></data></segment></body></omm>
<omm id="CCSDS_OMM_VERS" version="2.0">
<header><CREATION_DATE/><ORIGINATOR/></header><body><segment><metadata><OBJECT_NAME>KUIPER-00031</OBJECT_NAME><OBJECT_ID>2025-088W</OBJECT_ID><CENTER_NAME>EARTH</CENTER_NAME><REF_FRAME>TEME</REF_FRAME><TIME_SYSTEM>UTC</TIME_SYSTEM><MEAN_ELEMENT_THEORY>SGP4</MEAN_ELEMENT_THEORY></metadata><data><meanElements><EPOCH>2025-08-04T22:00:01.999584</EPOCH><MEAN_MOTION>15.34001208</MEAN_MOTION><ECCENTRICITY>.0002854</ECCENTRICITY><INCLINATION>51.8727</INCLINATION><RA_OF_ASC_NODE>344.5931</RA_OF_ASC_NODE><ARG_OF_PERICENTER>69.0555</ARG_OF_PERICENTER><MEAN_ANOMALY>82.9283</MEAN_ANOMALY></meanElements><tleParameters><EPHEMERIS_TYPE>0</EPHEMERIS_TYPE><CLASSIFICATION_TYPE>U</CLASSIFICATION_TYPE><NORAD_CAT_ID>63744</NORAD_CAT_ID><ELEMENT_SET_NO>999</ELEMENT_SET_NO><REV_AT_EPOCH>594</REV_AT_EPOCH><BSTAR>-.39764E-1</BSTAR><MEAN_MOTION_DOT>-.1205241E-1</MEAN_MOTION_DOT><MEAN_MOTION_DDOT>0</MEAN_MOTION_DDOT></tleParameters></data></segment></body></omm>
<omm id="CCSDS_OMM_VERS" version="2.0">
<header><CREATION_DATE/><ORIGINATOR/></header><body><segment><metadata><OBJECT_NAME>KUIPER-00032</OBJECT_NAME><OBJECT_ID>2025-088X</OBJECT_ID><CENTER_NAME>EARTH</CENTER_NAME><REF_FRAME>TEME</REF_FRAME><TIME_SYSTEM>UTC</TIME_SYSTEM><MEAN_ELEMENT_THEORY>SGP4</MEAN_ELEMENT_THEORY></metadata><data><meanElements><EPOCH>2025-08-04T22:00:01.999584</EPOCH><MEAN_MOTION>15.28832918</MEAN_MOTION><ECCENTRICITY>.0005024</ECCENTRICITY><INCLINATION>51.8746</INCLINATION><RA_OF_ASC_NODE>345.1249</RA_OF_ASC_NODE><ARG_OF_PERICENTER>66.6954</ARG_OF_PERICENTER><MEAN_ANOMALY>164.2502</MEAN_ANOMALY></meanElements><tleParameters><EPHEMERIS_TYPE>0</EPHEMERIS_TYPE><CLASSIFICATION_TYPE>U</CLASSIFICATION_TYPE><NORAD_CAT_ID>63745</NORAD_CAT_ID><ELEMENT_SET_NO>999</ELEMENT_SET_NO><REV_AT_EPOCH>533</REV_AT_EPOCH><BSTAR>.12493E-3</BSTAR><MEAN_MOTION_DOT>.3196E-4</MEAN_MOTION_DOT><MEAN_MOTION_DDOT>0</MEAN_MOTION_DDOT></tleParameters></data></segment></body></omm>
<omm id="CCSDS_OMM_VERS" version="2.0">
<header><CREATION_DATE/><ORIGINATOR/></header><body><segment><metadata><OBJECT_NAME>KUIPER-00033</OBJECT_NAME><OBJECT_ID>2025-088Y</OBJECT_ID><CENTER_NAME>EARTH</CENTER_NAME><REF_FRAME>TEME</REF_FRAME><TIME_SYSTEM>UTC</TIME_SYSTEM><MEAN_ELEMENT_THEORY>SGP4</MEAN_ELEMENT_THEORY></metadata><data><meanElements><EPOCH>2025-08-04T18:54:56.167776</EPOCH><MEAN_MOTION>14.80502198</MEAN_MOTION><ECCENTRICITY>.0003187</ECCENTRICITY><INCLINATION>51.9021</INCLINATION><RA_OF_ASC_NODE>5.7279</RA_OF_ASC_NODE><ARG_OF_PERICENTER>167.8113</ARG_OF_PERICENTER><MEAN_ANOMALY>192.2927</MEAN_ANOMALY></meanElements><tleParameters><EPHEMERIS_TYPE>0</EPHEMERIS_TYPE><CLASSIFICATION_TYPE>U</CLASSIFICATION_TYPE><NORAD_CAT_ID>63746</NORAD_CAT_ID><ELEMENT_SET_NO>999</ELEMENT_SET_NO><REV_AT_EPOCH>1548</REV_AT_EPOCH><BSTAR>.26384E-3</BSTAR><MEAN_MOTION_DOT>.1817E-4</MEAN_MOTION_DOT><MEAN_MOTION_DDOT>0</MEAN_MOTION_DDOT></tleParameters></data></segment></body></omm>
<omm id="CCSDS_OMM_VERS" version="2.0">
<header><CREATION_DATE/><ORIGINATOR/></header><body><segment><metadata><OBJECT_NAME>KUIPER-00034</OBJECT_NAME><OBJECT_ID>2025-088Z</OBJECT_ID><CENTER_NAME>EARTH</CENTER_NAME><REF_FRAME>TEME</REF_FRAME><TIME_SYSTEM>UTC</TIME_SYSTEM><MEAN_ELEMENT_THEORY>SGP4</MEAN_ELEMENT_THEORY></metadata><data><meanElements><EPOCH>2025-08-04T17:37:54.832224</EPOCH><MEAN_MOTION>15.38117381</MEAN_MOTION><ECCENTRICITY>.0001548</ECCENTRICITY><INCLINATION>51.8722</INCLINATION><RA_OF_ASC_NODE>345.1851</RA_OF_ASC_NODE><ARG_OF_PERICENTER>98.0493</ARG_OF_PERICENTER><MEAN_ANOMALY>262.0670</MEAN_ANOMALY></meanElements><tleParameters><EPHEMERIS_TYPE>0</EPHEMERIS_TYPE><CLASSIFICATION_TYPE>U</CLASSIFICATION_TYPE><NORAD_CAT_ID>63747</NORAD_CAT_ID><ELEMENT_SET_NO>999</ELEMENT_SET_NO><REV_AT_EPOCH>1544</REV_AT_EPOCH><BSTAR>.40073E-3</BSTAR><MEAN_MOTION_DOT>.1491E-3</MEAN_MOTION_DOT><MEAN_MOTION_DDOT>0</MEAN_MOTION_DDOT></tleParameters></data></segment></body></omm>

</ndm>
